[{"OBJECT_NAME":"STARLINK-3391","OBJECT_ID":"2022-005P","EPOCH":"2026-03-09T22:04:33.932352","MEAN_MOTION":15.08844118,"ECCENTRICITY":0.00014312,"INCLINATION":53.2168,"RA_OF_ASC_NODE":287.9774,"ARG_OF_PERICENTER":91.4736,"MEAN_ANOMALY":268.642,"EPHEMERIS_TYPE":0,"CLASSIFICATION_TYPE":"U","NORAD_CAT_ID":51117,"ELEMENT_SET_NO":999,"REV_AT_EPOCH":22891,"BSTAR":-3.1112352e-5,"MEAN_MOTION_DOT":-7.83e-6,"MEAN_MOTION_DDOT":0},{"OBJECT_NAME":"OBJECT BE","OBJECT_ID":"2018-099BE","EPOCH":"2026-03-09T15:10:24.322944","MEAN_MOTION":15.09972337,"ECCENTRICITY":0.0006427,"INCLINATION":97.4031,"RA_OF_ASC_NODE":111.7891,"ARG_OF_PERICENTER":340.4925,"MEAN_ANOMALY":19.6058,"EPHEMERIS_TYPE":0,"CLASSIFICATION_TYPE":"U","NORAD_CAT_ID":43810,"ELEMENT_SET_NO":999,"REV_AT_EPOCH":39698,"BSTAR":0.00027209,"MEAN_MOTION_DOT":4.358e-5,"MEAN_MOTION_DDOT":0}]
